[{"OBJECT_NAME":"ASTROCAST-0401","OBJECT_ID":"2023-001DF","EPOCH":"2026-03-09T17:04:53.382144","MEAN_MOTION":15.26258462,"ECCENTRICITY":0.00081423,"INCLINATION":97.5547,"RA_OF_ASC_NODE":160.5206,"ARG_OF_PERICENTER":188.4231,"MEAN_ANOMALY":171.6872,"EPHEMERIS_TYPE":0,"CLASSIFICATION_TYPE":"U","NORAD_CAT_ID":55110,"ELEMENT_SET_NO":999,"REV_AT_EPOCH":17602,"BSTAR":0.00037868349,"MEAN_MOTION_DOT":9.75e-5,"MEAN_MOTION_DDOT":0},{"OBJECT_NAME":"STARLINK-31737","OBJECT_ID":"2024-074D","EPOCH":"2026-03-09T02:11:13.239744","MEAN_MOTION":15.27589441,"ECCENTRICITY":0.00010817,"INCLINATION":43.0045,"RA_OF_ASC_NODE":346.8346,"ARG_OF_PERICENTER":269.7064,"MEAN_ANOMALY":90.3664,"EPHEMERIS_TYPE":0,"CLASSIFICATION_TYPE":"U","NORAD_CAT_ID":59537,"ELEMENT_SET_NO":999,"REV_AT_EPOCH":10592,"BSTAR":5.4299306e-5,"MEAN_MOTION_DOT":1.233e-5,"MEAN_MOTION_DDOT":0}]
